[{"OBJECT_NAME":"VIZARD-METEO (RS38S)","OBJECT_ID":"2023-091Z","EPOCH":"2026-03-09T23:01:09.168960","MEAN_MOTION":15.32764799,"ECCENTRICITY":0.00087615,"INCLINATION":97.5192,"RA_OF_ASC_NODE":136.6522,"ARG_OF_PERICENTER":71.7666,"MEAN_ANOMALY":288.4529,"EPHEMERIS_TYPE":0,"CLASSIFICATION_TYPE":"U","NORAD_CAT_ID":57189,"ELEMENT_SET_NO":999,"REV_AT_EPOCH":14947,"BSTAR":0.00066106249,"MEAN_MOTION_DOT":0.00020895,"MEAN_MOTION_DDOT":0},{"OBJECT_NAME":"STARLINK-31954","OBJECT_ID":"2024-117M","EPOCH":"2026-03-09T07:07:58.742688","MEAN_MOTION":15.30157979,"ECCENTRICITY":8.311e-5,"INCLINATION":53.1621,"RA_OF_ASC_NODE":39.142,"ARG_OF_PERICENTER":93.5893,"MEAN_ANOMALY":266.5203,"EPHEMERIS_TYPE":0,"CLASSIFICATION_TYPE":"U","NORAD_CAT_ID":60102,"ELEMENT_SET_NO":999,"REV_AT_EPOCH":9682,"BSTAR":-0.00013091889,"MEAN_MOTION_DOT":-4.229e-5,"MEAN_MOTION_DDOT":0}]
